QIANFAN-97              
1 66039U 25233G   25352.97941602  .00000049  00000+0  38730-4 0  9991
2 66039  88.9959  61.4909 0015627  34.8173 325.4011 13.74444850  8835
QIANFAN-98              
1 66040U 25233H   25353.24873956  .00000058  00000+0  34994-4 0  9998
2 66040  88.9954  61.3887 0015541  26.4094 333.7869 13.92095040  8915
QIANFAN-99              
1 66041U 25233J   25352.69695046  .00000053  00000+0  43578-4 0  9992
2 66041  88.9933  61.5282 0015840  30.4818 329.7263 13.72824856  8797
QIANFAN-100             
1 66042U 25233K   25352.94371502  .00000055  00000+0  38785-4 0  9995
2 66042  88.9956  61.4376 0016571  30.1077 330.1042 13.82936216  8866
QIANFAN-101             
1 66043U 25233L   25353.25918213  .00000257  00000+0  10010-3 0  9991
2 66043  88.9956  61.2794 0015286  22.6720 337.5146 14.26679822  8976
QIANFAN-102             
1 66044U 25233M   25353.27869902  .00000053  00000+0  40337-4 0  9994
2 66044  88.9955  61.4486 0015161  29.0081 331.1924 13.76786456  8889
QIANFAN-103             
1 66045U 25233N   25352.85455583  .00000044  00000+0  33537-4 0  9998
2 66045  88.9954  61.5144 0015970  28.7910 331.4132 13.73020446  8810
QIANFAN-104             
1 66046U 25233P   25352.92712025  .00000048  00000+0  36117-4 0  9995
2 66046  88.9957  61.4897 0014776  33.1155 327.0933 13.76211582  8830
